[{"OBJECT_NAME":"EXO-0","OBJECT_ID":"2023-174DK","EPOCH":"2026-03-09T17:03:04.419648","MEAN_MOTION":15.32821991,"ECCENTRICITY":0.00098779,"INCLINATION":97.3864,"RA_OF_ASC_NODE":148.9039,"ARG_OF_PERICENTER":157.1125,"MEAN_ANOMALY":203.0559,"EPHEMERIS_TYPE":0,"CLASSIFICATION_TYPE":"U","NORAD_CAT_ID":59175,"ELEMENT_SET_NO":999,"REV_AT_EPOCH":12979,"BSTAR":0.00036716083,"MEAN_MOTION_DOT":0.00011582,"MEAN_MOTION_DDOT":0},{"OBJECT_NAME":"STARLINK-31710","OBJECT_ID":"2024-062E","EPOCH":"2026-03-09T17:10:18.837120","MEAN_MOTION":15.30191972,"ECCENTRICITY":0.00012283,"INCLINATION":53.1602,"RA_OF_ASC_NODE":255.6643,"ARG_OF_PERICENTER":96.7544,"MEAN_ANOMALY":263.3597,"EPHEMERIS_TYPE":0,"CLASSIFICATION_TYPE":"U","NORAD_CAT_ID":59378,"ELEMENT_SET_NO":999,"REV_AT_EPOCH":10963,"BSTAR":4.6990441e-5,"MEAN_MOTION_DOT":1.032e-5,"MEAN_MOTION_DDOT":0}]
